[{"OBJECT_NAME":"SDA_1674","OBJECT_ID":"2025-230L","EPOCH":"2026-03-09T17:39:14.953536","MEAN_MOTION":13.85421025,"ECCENTRICITY":0.00045935,"INCLINATION":81.3001,"RA_OF_ASC_NODE":303.8213,"ARG_OF_PERICENTER":113.5479,"MEAN_ANOMALY":246.6161,"EPHEMERIS_TYPE":0,"CLASSIFICATION_TYPE":"U","NORAD_CAT_ID":65984,"ELEMENT_SET_NO":999,"REV_AT_EPOCH":2005,"BSTAR":0.00028416236,"MEAN_MOTION_DOT":3.35e-6,"MEAN_MOTION_DDOT":0},{"OBJECT_NAME":"SCOUT G-1 DEB","OBJECT_ID":"1986-088D","EPOCH":"2026-03-09T17:58:34.932288","MEAN_MOTION":13.86354444,"ECCENTRICITY":0.0006176,"INCLINATION":89.9258,"RA_OF_ASC_NODE":343.8156,"ARG_OF_PERICENTER":43.0976,"MEAN_ANOMALY":12.4756,"EPHEMERIS_TYPE":0,"CLASSIFICATION_TYPE":"U","NORAD_CAT_ID":18525,"ELEMENT_SET_NO":999,"REV_AT_EPOCH":98448,"BSTAR":0.00024283612,"MEAN_MOTION_DOT":2.91e-6,"MEAN_MOTION_DDOT":0}]
